[{"OBJECT_NAME":"STARLINK-6239","OBJECT_ID":"2023-061BB","EPOCH":"2026-03-08T13:30:47.288448","MEAN_MOTION":15.02537229,"ECCENTRICITY":0.00011696,"INCLINATION":43.0027,"RA_OF_ASC_NODE":177.7115,"ARG_OF_PERICENTER":275.8336,"MEAN_ANOMALY":84.2373,"EPHEMERIS_TYPE":0,"CLASSIFICATION_TYPE":"U","NORAD_CAT_ID":56423,"ELEMENT_SET_NO":999,"REV_AT_EPOCH":15688,"BSTAR":6.1795971e-5,"MEAN_MOTION_DOT":6.31e-6,"MEAN_MOTION_DDOT":0},{"OBJECT_NAME":"ELECTRON KICK STAGE R\/B","OBJECT_ID":"2022-079C","EPOCH":"2026-03-09T00:14:21.573024","MEAN_MOTION":14.9984674,"ECCENTRICITY":0.00071286,"INCLINATION":40.0139,"RA_OF_ASC_NODE":71.1393,"ARG_OF_PERICENTER":266.8926,"MEAN_ANOMALY":93.1051,"EPHEMERIS_TYPE":0,"CLASSIFICATION_TYPE":"U","NORAD_CAT_ID":53104,"ELEMENT_SET_NO":999,"REV_AT_EPOCH":10032,"BSTAR":0.00071833394,"MEAN_MOTION_DOT":8.922e-5,"MEAN_MOTION_DDOT":0}]
